     2.100          NAVIGATION                              RINEX VERSION / TYPE
fic2rin                                 06/09/2012 00:08:09 PGM / RUN BY / DATE
                                                            END OF HEADER
30 12  6  8 10  0  0.0 -.225087162107D-03 -.230784280575D-10  .000000000000D+00
     .104000000000D+03 -.554375000000D+02  .465055085697D-08  .172837364508D+01
    -.313669443130D-05  .111290427158D-01  .268407166004D-05  .515366347694D+04
     .468000000000D+06  .134110450745D-06  .273113756755D+01 -.178813934326D-06
     .960221941418D+00  .328468750000D+03  .156795636978D+01 -.839356391134D-08
    -.860750139413D-10  .100000000000D+01  .169100000000D+04  .000000000000D+00
     .136500000000D+02  .000000000000D+00 -.419095158577D-08  .104000000000D+03
     .460806000000D+06  .400000000000D+01
31 12  6  8 10  0  0.0  .250764191151D-03  .397903932026D-11  .000000000000D+00
     .920000000000D+02  .781562500000D+02  .414267255894D-08 -.981032034482D+00
     .406987965107D-05  .775359442923D-02  .543706119061D-05  .515366337013D+04
     .468000000000D+06 -.819563865662D-07  .180263812986D+01 -.465661287308D-07
     .980669344906D+00  .288093750000D+03 -.858926392223D+00 -.817819779762D-08
     .275368613065D-09  .100000000000D+01  .169100000000D+04  .000000000000D+00
     .240000000000D+01  .000000000000D+00 -.130385160446D-07  .920000000000D+02
     .460806000000D+06  .400000000000D+01
32 12  6  8 10  0  0.0 -.452226493508D-03 -.397903932026D-11  .000000000000D+00
     .630000000000D+02 -.921875000000D+01  .522700343996D-08 -.403928176087D+00
    -.508502125740D-06  .118049406447D-01  .647827982903D-05  .515365686417D+04
     .468000000000D+06  .428408384323D-07 -.222587203353D+00 -.189989805222D-06
     .951770262835D+00  .253625000000D+03 -.569861127998D+00 -.848892502637D-08
    -.268939773850D-09  .100000000000D+01  .169100000000D+04  .000000000000D+00
     .240000000000D+01  .000000000000D+00 -.279396772385D-08  .630000000000D+02
     .460806000000D+06  .400000000000D+01
 6 12  6  8  9 59 44.0  .200918875635D-04 -.329691829393D-11  .000000000000D+00
     .240000000000D+02 -.844375000000D+02  .475269796895D-08  .252353025912D+01
    -.436976552010D-05  .735258543864D-02  .101942569017D-04  .515369658852D+04
     .467984000000D+06  .316649675369D-07 -.246262362374D+01  .987201929092D-07
     .938368575641D+00  .168375000000D+03 -.528140789035D+00 -.807890794752D-08
     .839320675361D-10  .100000000000D+01  .169100000000D+04  .000000000000D+00
     .240000000000D+01  .000000000000D+00 -.512227416039D-08  .240000000000D+02
     .461886000000D+06  .400000000000D+01
30 12  6  8  9 59 44.0 -.225099734962D-03 -.236468622461D-10  .000000000000D+00
     .900000000000D+01 -.554375000000D+02  .465055085697D-08  .172603980359D+01
    -.313669443130D-05  .111290436471D-01  .268407166004D-05  .515366348267D+04
     .467984000000D+06  .134110450745D-06  .273113769482D+01 -.178813934326D-06
     .960221935566D+00  .328468750000D+03  .156795643268D+01 -.839356391134D-08
    -.860750139413D-10  .100000000000D+01  .169100000000D+04  .000000000000D+00
     .340000000000D+01  .000000000000D+00 -.419095158577D-08  .900000000000D+01
     .463986000000D+06  .400000000000D+01
 6 12  6  8 11 59 44.0  .200686044991D-04 -.329691829393D-11  .000000000000D+00
     .250000000000D+02 -.893437500000D+02  .468269505304D-08 -.270958331732D+01
    -.440515577793D-05  .735242955852D-02  .107213854790D-04  .515369699478D+04
     .475184000000D+06 -.204890966415D-07 -.246268180545D+01  .875443220139D-07
     .938369337821D+00  .159156250000D+03 -.528045150766D+00 -.806390732268D-08
     .105361531588D-09  .100000000000D+01  .169100000000D+04  .000000000000D+00
     .240000000000D+01  .000000000000D+00 -.512227416039D-08  .250000000000D+02
     .468006000000D+06  .400000000000D+01
30 12  6  8 11 59 44.0 -.225269701332D-03 -.236468622461D-10  .000000000000D+00
     .870000000000D+02 -.619687500000D+02  .466269421993D-08  .277626554304D+01
    -.314041972160D-05  .111297807889D-01  .247545540333D-05  .515366201782D+04
     .475184000000D+06  .875443220139D-07  .273107862219D+01  .167638063431D-07
     .960221574226D+00  .331812500000D+03  .156791842461D+01 -.823320008869D-08
    -.178221709364D-09  .100000000000D+01  .169100000000D+04  .000000000000D+00
     .485000000000D+01  .000000000000D+00 -.419095158577D-08  .870000000000D+02
     .468006000000D+06  .400000000000D+01
 1 12  6  8 12  0  0.0  .260415952653D-03  .170530256582D-11  .000000000000D+00
     .140000000000D+02  .198437500000D+02  .474912639161D-08  .618620965852D+00
     .101700425148D-05  .763100804761D-03  .819377601147D-05  .515364637947D+04
     .475200000000D+06  .242143869400D-07 -.136115003972D+01 -.465661287308D-07
     .959654346758D+00  .222937500000D+03  .251981047245D+00 -.807426489697D-08
     .440018328530D-09  .100000000000D+01  .169100000000D+04  .000000000000D+00
     .240000000000D+01  .000000000000D+00  .838190317154D-08  .140000000000D+02
     .468006000000D+06  .400000000000D+01
 2 12  6  8 12  0  0.0  .392973888665D-03  .125055521494D-11  .000000000000D+00
     .820000000000D+02  .376562500000D+02  .523914680292D-08  .151499561344D+01
     .189617276192D-05  .112719462486D-01  .802986323833D-05  .515370344734D+04
     .475200000000D+06 -.113621354103D-06 -.137514475586D+01  .169500708580D-06
     .938201067132D+00  .210437500000D+03 -.277580074909D+01 -.841249327125D-08
     .320370487574D-09  .100000000000D+01  .169100000000D+04  .000000000000D+00
     .240000000000D+01  .000000000000D+00 -.172294676304D-07  .820000000000D+02
     .468006000000D+06  .400000000000D+01
 3 12  6  8 12  0  0.0  .596721656621D-04  .511590769747D-11  .000000000000D+00
     .480000000000D+02 -.107718750000D+03  .487663170271D-08  .168960531827D+01
    -.567361712456D-05  .153534875717D-01  .989250838757D-05  .515373032188D+04
     .475200000000D+06 -.189989805222D-06 -.253937748599D+01 -.320374965668D-06
     .931550274351D+00  .177093750000D+03  .119345392188D+01 -.833463288520D-08
     .353586156854D-10  .100000000000D+01  .169100000000D+04  .000000000000D+00
     .340000000000D+01  .000000000000D+00 -.465661287308D-08  .480000000000D+02
     .468006000000D+06  .400000000000D+01
 4 12  6  8 12  0  0.0  .208067242056D-03  .114823706099D-10  .000000000000D+00
     .740000000000D+02  .319062500000D+02  .517092967569D-08 -.157263572538D+01
     .169128179550D-05  .998342782259D-02  .733695924282D-05  .515360750389D+04
     .475200000000D+06  .162050127983D-06 -.135825176201D+01 -.428408384323D-07
     .937260304014D+00  .217031250000D+03  .857721139368D+00 -.826391565383D-08
     .515021452711D-09  .100000000000D+01  .169100000000D+04  .000000000000D+00
     .240000000000D+01  .000000000000D+00 -.605359673500D-08  .740000000000D+02
     .468006000000D+06  .400000000000D+01
 5 12  6  8 12  0  0.0 -.323330983520D-03 -.375166564481D-11  .000000000000D+00
     .820000000000D+02 -.731250000000D+01  .516700094061D-08 -.267898644128D+01
    -.422820448875D-06  .267734669615D-02  .627897679806D-05  .515367034340D+04
     .475200000000D+06 -.894069671631D-07 -.311589178986D+00 -.856816768646D-07
     .951070799276D+00  .255906250000D+03  .227264917559D+00 -.828177354054D-08
    -.297512392585D-09  .100000000000D+01  .169100000000D+04  .000000000000D+00
     .240000000000D+01  .000000000000D+00 -.102445483208D-07  .820000000000D+02
     .468006000000D+06  .400000000000D+01
 7 12  6  8 12  0  0.0  .887024216354D-04  .363797880709D-11  .000000000000D+00
     .105000000000D+03  .660937500000D+02  .429767901558D-08  .153936094708D+00
     .326707959175D-05  .545383256394D-02  .518932938576D-05  .515360583305D+04
     .475200000000D+06  .279396772385D-07  .179961280503D+01  .931322574615D-08
     .975608450031D+00  .284218750000D+03 -.303178688568D+01 -.819105547605D-08
     .657170230921D-10  .100000000000D+01  .169100000000D+04  .000000000000D+00
     .240000000000D+01  .000000000000D+00 -.107102096081D-07  .105000000000D+03
     .468006000000D+06  .400000000000D+01
 8 12  6  8 12  0  0.0  .140443444252D-05  .113686837722D-12  .000000000000D+00
     .410000000000D+02  .571875000000D+02  .375479925960D-08 -.543963377435D+00
     .288151204586D-05  .122949925717D-01  .475905835629D-05  .515367766953D+04
     .475200000000D+06  .212341547012D-06  .188323968609D+01 -.931322574615D-08
     .997809441717D+00  .306812500000D+03 -.296883009496D+01 -.797461788913D-08
     .925038531568D-10  .100000000000D+01  .169100000000D+04  .000000000000D+00
     .340000000000D+01  .000000000000D+00 -.372529029846D-08  .410000000000D+02
     .468006000000D+06  .400000000000D+01
 9 12  6  8 12  0  0.0  .163681339473D-03  .261479726760D-11  .000000000000D+00
     .190000000000D+03  .738125000000D+02  .422517599554D-08 -.559057764714D+00
     .400841236115D-05  .175471357070D-01  .533275306225D-05  .515361865044D+04
     .475200000000D+06 -.178813934326D-06  .177394614725D+01  .135973095894D-06
     .984339380658D+00  .291781250000D+03  .162245045298D+01 -.835856245339D-08
     .238581366443D-09  .100000000000D+01  .169100000000D+04  .000000000000D+00
     .340000000000D+01  .000000000000D+00 -.558793544769D-08  .190000000000D+03
     .468006000000D+06  .400000000000D+01
10 12  6  8 12  0  0.0 -.407611951232D-04 -.125055521494D-11  .000000000000D+00
     .290000000000D+02 -.878125000000D+01  .522843207090D-08 -.240894660808D+01
    -.689178705215D-06  .113083663164D-01  .621750950813D-05  .515369879723D+04
     .475200000000D+06  .199303030968D-06 -.290096381553D+00 -.178813934326D-06
     .945964521756D+00  .250312500000D+03  .751149764837D+00 -.828605943335D-08
    -.177864551630D-09  .100000000000D+01  .169100000000D+04  .000000000000D+00
     .240000000000D+01  .000000000000D+00 -.232830643654D-08  .290000000000D+02
     .468006000000D+06  .400000000000D+01
